{
    "links": {
        "self": "http://www.neowsapp.com/rest/v1/neo/54016377?api_key=iIulBulltgU6a56xZRHN4H3l9WmuAYTsLGpBGhQ2"
    },
    "id": "54016377",
    "neo_reference_id": "54016377",
    "name": "(2020 FO5)",
    "designation": "2020 FO5",
    "nasa_jpl_url": "http://ssd.jpl.nasa.gov/sbdb.cgi?sstr=54016377",
    "absolute_magnitude_h": 20.512,
    "estimated_diameter": {
        "kilometers": {
            "estimated_diameter_min": 0.2099689017,
            "estimated_diameter_max": 0.4695047374
        },
        "meters": {
            "estimated_diameter_min": 209.9689017311,
            "estimated_diameter_max": 469.5047374316
        },
        "miles": {
            "estimated_diameter_min": 0.1304685864,
            "estimated_diameter_max": 0.2917366282
        },
        "feet": {
            "estimated_diameter_min": 688.8743715553,
            "estimated_diameter_max": 1540.3699227552
        }
    },
    "is_potentially_hazardous_asteroid": true,
    "close_approach_data": [
        {
            "close_approach_date": "1914-03-13",
            "close_approach_date_full": "1914-Mar-13 10:29",
            "epoch_date_close_approach": -1761053460000,
            "relative_velocity": {
                "kilometers_per_second": "45.2590555103",
                "kilometers_per_hour": "162932.5998369101",
                "miles_per_hour": "101239.9812708845"
            },
            "miss_distance": {
                "astronomical": "0.4586462067",
                "lunar": "178.4133744063",
                "kilometers": "68612495.605899729",
                "miles": "42633827.8126411002"
            },
            "orbiting_body": "Earth"
        },
        {
            "close_approach_date": "2020-04-11",
            "close_approach_date_full": "2020-Apr-11 21:02",
            "epoch_date_close_approach": 1586638920000,
            "relative_velocity": {
                "kilometers_per_second": "27.5174275414",
                "kilometers_per_hour": "99062.7391489158",
                "miles_per_hour": "61553.7336672805"
            },
            "miss_distance": {
                "astronomical": "0.1421264113",
                "lunar": "55.2871739957",
                "kilometers": "21261808.401223931",
                "miles": "13211475.1162790078"
            },
            "orbiting_body": "Earth"
        },
        {
            "close_approach_date": "2139-11-02",
            "close_approach_date_full": "2139-Nov-02 09:52",
            "epoch_date_close_approach": 5359513920000,
            "relative_velocity": {
                "kilometers_per_second": "21.0426987786",
                "kilometers_per_hour": "75753.7156030298",
                "miles_per_hour": "47070.4128978937"
            },
            "miss_distance": {
                "astronomical": "0.3326056512",
                "lunar": "129.3835983168",
                "kilometers": "49757096.969482944",
                "miles": "30917626.3874508672"
            },
            "orbiting_body": "Earth"
        },
        {
            "close_approach_date": "2145-10-08",
            "close_approach_date_full": "2145-Oct-08 11:53",
            "epoch_date_close_approach": 5546749980000,
            "relative_velocity": {
                "kilometers_per_second": "20.580701538",
                "kilometers_per_hour": "74090.5255369076",
                "miles_per_hour": "46036.9712704191"
            },
            "miss_distance": {
                "astronomical": "0.4783708946",
                "lunar": "186.0862779994",
                "kilometers": "71563266.902154502",
                "miles": "44467352.0744840476"
            },
            "orbiting_body": "Earth"
        },
        {
            "close_approach_date": "2151-09-26",
            "close_approach_date_full": "2151-Sep-26 02:15",
            "epoch_date_close_approach": 5734980900000,
            "relative_velocity": {
                "kilometers_per_second": "39.2918798532",
                "kilometers_per_hour": "141450.7674713807",
                "miles_per_hour": "87892.0060435365"
            },
            "miss_distance": {
                "astronomical": "0.1422590992",
                "lunar": "55.3387895888",
                "kilometers": "21281658.228438704",
                "miles": "13223809.2269699552"
            },
            "orbiting_body": "Venus"
        }
    ],
    "orbital_data": {
        "orbit_id": "14",
        "orbit_determination_date": "2020-04-16 06:09:03",
        "first_observation_date": "2020-03-23",
        "last_observation_date": "2020-04-16",
        "data_arc_in_days": 24,
        "observations_used": 90,
        "orbit_uncertainty": "7",
        "minimum_orbit_intersection": ".0220464",
        "jupiter_tisserand_invariant": "2.306",
        "epoch_osculation": "2459000.5",
        "eccentricity": ".8906850059370519",
        "semi_major_axis": "3.270596791963566",
        "inclination": "7.423361370866966",
        "ascending_node_longitude": "227.40445198862",
        "orbital_period": "2160.423718057868",
        "perihelion_distance": ".3575252688957943",
        "perihelion_argument": "79.27868634266007",
        "aphelion_distance": "6.183668315031338",
        "perihelion_time": "2458992.876073459188",
        "mean_anomaly": "1.270405213454937",
        "mean_motion": ".1666339787843217",
        "equinox": "J2000",
        "orbit_class": {
            "orbit_class_type": "APO",
            "orbit_class_description": "Near-Earth asteroid orbits which cross the Earth’s orbit similar to that of 1862 Apollo",
            "orbit_class_range": "a (semi-major axis) > 1.0 AU; q (perihelion) < 1.017 AU"
        }
    },
    "is_sentry_object": false
}